IRIDIUM 136             
1 42962U 17061H   23205.23720552  .00000334  00000+0  11231-3 0  9996
2 42962  86.3969 107.8362 0001983  80.1205 280.0215 14.34217844303057
